KUIPER-00179            
1 67136U 25301D   26001.28739965  .00041313  00000+0  11486-2 0  9995
2 67136  51.8739  30.7636 0003359 100.9909 259.1455 15.36443482  3555
KUIPER-00181            
1 67137U 25301E   26001.30723608  .00042579  00000+0  12514-2 0  9994
2 67137  51.8643  30.8921 0010474 162.5676 197.5671 15.34642818  3534
KUIPER-00183            
1 67138U 25301F   26001.31055252  .00044543  00000+0  13183-2 0  9995
2 67138  51.8620  30.9104 0011092 165.2846 194.8464 15.34396191  3541
KUIPER-00184            
1 67139U 25301G   26001.24131819  .00028820  00000+0  85131-3 0  9995
2 67139  51.8629  31.1996 0009125 160.7395 199.3937 15.34687589  3646
KUIPER-00186            
1 67140U 25301H   26001.30050242  .00025763  00000+0  74665-3 0  9997
2 67140  51.8684  30.8510 0007797 148.4226 211.7229 15.35360537  3371
KUIPER-00187            
1 67141U 25301J   26001.29219318  .00019685  00000+0  56001-3 0  9997
2 67141  51.8713  30.7980 0004823 135.0443 225.0935 15.36126100  3374
KUIPER-00188            
1 67142U 25301K   26001.30149320  .00031179  00000+0  90283-3 0  9997
2 67142  51.8696  30.8578 0007562 152.4992 207.6395 15.35285563  3378
KUIPER-00191            
1 67143U 25301L   26001.29924369  .00024631  00000+0  71321-3 0  9997
2 67143  51.8674  30.8427 0006667 148.1105 212.0286 15.35420539  3408
KUIPER-00196            
1 67144U 25301M   26001.29025546  .00023965  00000+0  67712-3 0  9995
2 67144  51.8730  30.7842 0003831 115.0774 245.0611 15.36217973  3378
KUIPER-00204            
1 67145U 25301N   26001.28470457  .00028848  00000+0  79742-3 0  9991
2 67145  51.8745  30.7423 0002257  88.2524 271.8721 15.36801151  3483
KUIPER-00210            
1 67146U 25301P   26001.30955569  .00040645  00000+0  12006-2 0  9995
2 67146  51.8608  30.9037 0010503 167.7378 192.3865 15.34504342  3541
KUIPER-00221            
1 67147U 25301Q   26001.29339160  .00041851  00000+0  11802-2 0  9990
2 67147  51.8720  30.8049 0005220 132.3484 227.7946 15.35986092  3376
