CCSDS_OMM_VERS = 2.0
CREATION_DATE  = 
ORIGINATOR     = 

OBJECT_NAME    = KUIPER-00179
OBJECT_ID      = 2025-301D
CENTER_NAME    = EARTH
REF_FRAME      = TEME
TIME_SYSTEM    = UTC
MEAN_ELEMENT_THEORY = SGP/SGP4

EPOCH          = 2026-01-01T06:53:51.329760
MEAN_MOTION    = 15.36443482
ECCENTRICITY   = .00033597
INCLINATION    = 51.8739
RA_OF_ASC_NODE = 30.7636
ARG_OF_PERICENTER = 100.9909
MEAN_ANOMALY   = 259.1455

EPHEMERIS_TYPE = 0
CLASSIFICATION_TYPE = U
NORAD_CAT_ID   = 67136
ELEMENT_SET_NO = 999
REV_AT_EPOCH   = 355
BSTAR          = .11485576E-2
MEAN_MOTION_DOT = .41313E-3
MEAN_MOTION_DDOT = 0

CCSDS_OMM_VERS = 2.0
CREATION_DATE  = 
ORIGINATOR     = 

OBJECT_NAME    = KUIPER-00181
OBJECT_ID      = 2025-301E
CENTER_NAME    = EARTH
REF_FRAME      = TEME
TIME_SYSTEM    = UTC
MEAN_ELEMENT_THEORY = SGP/SGP4

EPOCH          = 2026-01-01T07:22:25.197312
MEAN_MOTION    = 15.34642818
ECCENTRICITY   = .0010474
INCLINATION    = 51.8643
RA_OF_ASC_NODE = 30.8921
ARG_OF_PERICENTER = 162.5676
MEAN_ANOMALY   = 197.5671

EPHEMERIS_TYPE = 0
CLASSIFICATION_TYPE = U
NORAD_CAT_ID   = 67137
ELEMENT_SET_NO = 999
REV_AT_EPOCH   = 353
BSTAR          = .12514059E-2
MEAN_MOTION_DOT = .42579E-3
MEAN_MOTION_DDOT = 0

CCSDS_OMM_VERS = 2.0
CREATION_DATE  = 
ORIGINATOR     = 

OBJECT_NAME    = KUIPER-00183
OBJECT_ID      = 2025-301F
CENTER_NAME    = EARTH
REF_FRAME      = TEME
TIME_SYSTEM    = UTC
MEAN_ELEMENT_THEORY = SGP/SGP4

EPOCH          = 2026-01-01T07:27:11.737728
MEAN_MOTION    = 15.34396191
ECCENTRICITY   = .00110922
INCLINATION    = 51.8620
RA_OF_ASC_NODE = 30.9104
ARG_OF_PERICENTER = 165.2846
MEAN_ANOMALY   = 194.8464

EPHEMERIS_TYPE = 0
CLASSIFICATION_TYPE = U
NORAD_CAT_ID   = 67138
ELEMENT_SET_NO = 999
REV_AT_EPOCH   = 354
BSTAR          = .13182855E-2
MEAN_MOTION_DOT = .44543E-3
MEAN_MOTION_DDOT = 0

CCSDS_OMM_VERS = 2.0
CREATION_DATE  = 
ORIGINATOR     = 

OBJECT_NAME    = KUIPER-00184
OBJECT_ID      = 2025-301G
CENTER_NAME    = EARTH
REF_FRAME      = TEME
TIME_SYSTEM    = UTC
MEAN_ELEMENT_THEORY = SGP/SGP4

EPOCH          = 2026-01-01T05:47:29.891616
MEAN_MOTION    = 15.34687589
ECCENTRICITY   = .00091251
INCLINATION    = 51.8629
RA_OF_ASC_NODE = 31.1996
ARG_OF_PERICENTER = 160.7395
MEAN_ANOMALY   = 199.3937

EPHEMERIS_TYPE = 0
CLASSIFICATION_TYPE = U
NORAD_CAT_ID   = 67139
ELEMENT_SET_NO = 999
REV_AT_EPOCH   = 364
BSTAR          = .85130761E-3
MEAN_MOTION_DOT = .2882E-3
MEAN_MOTION_DDOT = 0

CCSDS_OMM_VERS = 2.0
CREATION_DATE  = 
ORIGINATOR     = 

OBJECT_NAME    = KUIPER-00186
OBJECT_ID      = 2025-301H
CENTER_NAME    = EARTH
REF_FRAME      = TEME
TIME_SYSTEM    = UTC
MEAN_ELEMENT_THEORY = SGP/SGP4

EPOCH          = 2026-01-01T07:12:43.409088
MEAN_MOTION    = 15.35360537
ECCENTRICITY   = .00077972
INCLINATION    = 51.8684
RA_OF_ASC_NODE = 30.8510
ARG_OF_PERICENTER = 148.4226
MEAN_ANOMALY   = 211.7229

EPHEMERIS_TYPE = 0
CLASSIFICATION_TYPE = U
NORAD_CAT_ID   = 67140
ELEMENT_SET_NO = 999
REV_AT_EPOCH   = 337
BSTAR          = .74664557E-3
MEAN_MOTION_DOT = .25763E-3
MEAN_MOTION_DDOT = 0

CCSDS_OMM_VERS = 2.0
CREATION_DATE  = 
ORIGINATOR     = 

OBJECT_NAME    = KUIPER-00187
OBJECT_ID      = 2025-301J
CENTER_NAME    = EARTH
REF_FRAME      = TEME
TIME_SYSTEM    = UTC
MEAN_ELEMENT_THEORY = SGP/SGP4

EPOCH          = 2026-01-01T07:00:45.490752
MEAN_MOTION    = 15.36126100
ECCENTRICITY   = .00048231
INCLINATION    = 51.8713
RA_OF_ASC_NODE = 30.7980
ARG_OF_PERICENTER = 135.0443
MEAN_ANOMALY   = 225.0935

EPHEMERIS_TYPE = 0
CLASSIFICATION_TYPE = U
NORAD_CAT_ID   = 67141
ELEMENT_SET_NO = 999
REV_AT_EPOCH   = 337
BSTAR          = .56000966E-3
MEAN_MOTION_DOT = .19685E-3
MEAN_MOTION_DDOT = 0

CCSDS_OMM_VERS = 2.0
CREATION_DATE  = 
ORIGINATOR     = 

OBJECT_NAME    = KUIPER-00188
OBJECT_ID      = 2025-301K
CENTER_NAME    = EARTH
REF_FRAME      = TEME
TIME_SYSTEM    = UTC
MEAN_ELEMENT_THEORY = SGP/SGP4

EPOCH          = 2026-01-01T07:14:09.012480
MEAN_MOTION    = 15.35285563
ECCENTRICITY   = .00075629
INCLINATION    = 51.8696
RA_OF_ASC_NODE = 30.8578
ARG_OF_PERICENTER = 152.4992
MEAN_ANOMALY   = 207.6395

EPHEMERIS_TYPE = 0
CLASSIFICATION_TYPE = U
NORAD_CAT_ID   = 67142
ELEMENT_SET_NO = 999
REV_AT_EPOCH   = 337
BSTAR          = .90282938E-3
MEAN_MOTION_DOT = .31179E-3
MEAN_MOTION_DDOT = 0

CCSDS_OMM_VERS = 2.0
CREATION_DATE  = 
ORIGINATOR     = 

OBJECT_NAME    = KUIPER-00191
OBJECT_ID      = 2025-301L
CENTER_NAME    = EARTH
REF_FRAME      = TEME
TIME_SYSTEM    = UTC
MEAN_ELEMENT_THEORY = SGP/SGP4

EPOCH          = 2026-01-01T07:10:54.654816
MEAN_MOTION    = 15.35420539
ECCENTRICITY   = .00066673
INCLINATION    = 51.8674
RA_OF_ASC_NODE = 30.8427
ARG_OF_PERICENTER = 148.1105
MEAN_ANOMALY   = 212.0286

EPHEMERIS_TYPE = 0
CLASSIFICATION_TYPE = U
NORAD_CAT_ID   = 67143
ELEMENT_SET_NO = 999
REV_AT_EPOCH   = 340
BSTAR          = .71321223E-3
MEAN_MOTION_DOT = .24631E-3
MEAN_MOTION_DDOT = 0

CCSDS_OMM_VERS = 2.0
CREATION_DATE  = 
ORIGINATOR     = 

OBJECT_NAME    = KUIPER-00196
OBJECT_ID      = 2025-301M
CENTER_NAME    = EARTH
REF_FRAME      = TEME
TIME_SYSTEM    = UTC
MEAN_ELEMENT_THEORY = SGP/SGP4

EPOCH          = 2026-01-01T06:57:58.071744
MEAN_MOTION    = 15.36217973
ECCENTRICITY   = .0003831
INCLINATION    = 51.8730
RA_OF_ASC_NODE = 30.7842
ARG_OF_PERICENTER = 115.0774
MEAN_ANOMALY   = 245.0611

EPHEMERIS_TYPE = 0
CLASSIFICATION_TYPE = U
NORAD_CAT_ID   = 67144
ELEMENT_SET_NO = 999
REV_AT_EPOCH   = 337
BSTAR          = .67712152E-3
MEAN_MOTION_DOT = .23965E-3
MEAN_MOTION_DDOT = 0

CCSDS_OMM_VERS = 2.0
CREATION_DATE  = 
ORIGINATOR     = 

OBJECT_NAME    = KUIPER-00204
OBJECT_ID      = 2025-301N
CENTER_NAME    = EARTH
REF_FRAME      = TEME
TIME_SYSTEM    = UTC
MEAN_ELEMENT_THEORY = SGP/SGP4

EPOCH          = 2026-01-01T06:49:58.474848
MEAN_MOTION    = 15.36801151
ECCENTRICITY   = .00022576
INCLINATION    = 51.8745
RA_OF_ASC_NODE = 30.7423
ARG_OF_PERICENTER = 88.2524
MEAN_ANOMALY   = 271.8721

EPHEMERIS_TYPE = 0
CLASSIFICATION_TYPE = U
NORAD_CAT_ID   = 67145
ELEMENT_SET_NO = 999
REV_AT_EPOCH   = 348
BSTAR          = .79742229E-3
MEAN_MOTION_DOT = .28848E-3
MEAN_MOTION_DDOT = 0

CCSDS_OMM_VERS = 2.0
CREATION_DATE  = 
ORIGINATOR     = 

OBJECT_NAME    = KUIPER-00210
OBJECT_ID      = 2025-301P
CENTER_NAME    = EARTH
REF_FRAME      = TEME
TIME_SYSTEM    = UTC
MEAN_ELEMENT_THEORY = SGP/SGP4

EPOCH          = 2026-01-01T07:25:45.611616
MEAN_MOTION    = 15.34504342
ECCENTRICITY   = .00105038
INCLINATION    = 51.8608
RA_OF_ASC_NODE = 30.9037
ARG_OF_PERICENTER = 167.7378
MEAN_ANOMALY   = 192.3865

EPHEMERIS_TYPE = 0
CLASSIFICATION_TYPE = U
NORAD_CAT_ID   = 67146
ELEMENT_SET_NO = 999
REV_AT_EPOCH   = 354
BSTAR          = .12006191E-2
MEAN_MOTION_DOT = .40645E-3
MEAN_MOTION_DDOT = 0

CCSDS_OMM_VERS = 2.0
CREATION_DATE  = 
ORIGINATOR     = 

OBJECT_NAME    = KUIPER-00221
OBJECT_ID      = 2025-301Q
CENTER_NAME    = EARTH
REF_FRAME      = TEME
TIME_SYSTEM    = UTC
MEAN_ELEMENT_THEORY = SGP/SGP4

EPOCH          = 2026-01-01T07:02:29.034240
MEAN_MOTION    = 15.35986092
ECCENTRICITY   = .00052209
INCLINATION    = 51.8720
RA_OF_ASC_NODE = 30.8049
ARG_OF_PERICENTER = 132.3484
MEAN_ANOMALY   = 227.7946

EPHEMERIS_TYPE = 0
CLASSIFICATION_TYPE = U
NORAD_CAT_ID   = 67147
ELEMENT_SET_NO = 999
REV_AT_EPOCH   = 337
BSTAR          = .11801999E-2
MEAN_MOTION_DOT = .41851E-3
MEAN_MOTION_DDOT = 0

